[{"OBJECT_NAME":"STARLINK-32332","OBJECT_ID":"2025-003D","EPOCH":"2026-03-08T23:49:39.789696","MEAN_MOTION":15.27604214,"ECCENTRICITY":0.0002782,"INCLINATION":43.0049,"RA_OF_ASC_NODE":293.023,"ARG_OF_PERICENTER":264.0944,"MEAN_ANOMALY":95.959,"EPHEMERIS_TYPE":0,"CLASSIFICATION_TYPE":"U","NORAD_CAT_ID":62490,"ELEMENT_SET_NO":999,"REV_AT_EPOCH":6654,"BSTAR":0.0012452164,"MEAN_MOTION_DOT":0.0003419,"MEAN_MOTION_DDOT":0},{"OBJECT_NAME":"CZ-6A DEB","OBJECT_ID":"2022-151SD","EPOCH":"2026-03-09T21:25:15.700512","MEAN_MOTION":15.24469357,"ECCENTRICITY":0.00248717,"INCLINATION":98.6538,"RA_OF_ASC_NODE":157.5128,"ARG_OF_PERICENTER":174.047,"MEAN_ANOMALY":186.1065,"EPHEMERIS_TYPE":0,"CLASSIFICATION_TYPE":"U","NORAD_CAT_ID":54940,"ELEMENT_SET_NO":999,"REV_AT_EPOCH":17680,"BSTAR":0.0087519903,"MEAN_MOTION_DOT":0.00223015,"MEAN_MOTION_DDOT":0}]
